{
  "type": "FeatureCollection",
  "features": [
    {
      "type": "Feature",
      "properties": {
        "norad_id": 30232,
        "name": "FENGYUN 1C DEB",
        "group": "fengyun-1c-debris",
        "lat": -64.04812965823916,
        "lon": -10.410756590981046,
        "alt_km": 706.5198975833091,
        "timestamp": "2025-12-13T16:48:32.985138+00:00",
        "meta_object_name": "FENGYUN 1C DEB",
        "meta_object_id": "1999-025WR",
        "meta_epoch": "2025-12-13T00:00:12.891744",
        "meta_mean_motion": 14.63593831,
        "meta_eccentricity": 0.01359649,
        "meta_inclination": 98.6937,
        "meta_ra_of_asc_node": 187.1748,
        "meta_arg_of_pericenter": 348.9943,
        "meta_mean_anomaly": 170.609,
        "meta_ephemeris_type": 0,
        "meta_classification_type": "U",
        "meta_norad_cat_id": 30232,
        "meta_element_set_no": 999,
        "meta_rev_at_epoch": 99755,
        "meta_bstar": 0.0010115197,
        "meta_mean_motion_dot": 5.951e-05,
        "meta_mean_motion_ddot": 0,
        "tle_line1": "1 30232U 99025WR  25347.00014921  .00005951  00000+0  10115-2 0  9992",
        "tle_line2": "2 30232  98.6937 187.1748 0135964 348.9943 170.6090 14.63593831997559"
      },
      "geometry": {
        "type": "Point",
        "coordinates": [
          -10.410756590981046,
          -64.04812965823916
        ]
      }
    },
    {
      "type": "Feature",
      "properties": {
        "norad_id": 30234,
        "name": "FENGYUN 1C DEB",
        "group": "fengyun-1c-debris",
        "lat": -13.044308920696963,
        "lon": 0.4672937778599055,
        "alt_km": 836.3168458492237,
        "timestamp": "2025-12-13T16:48:32.985148+00:00",
        "meta_object_name": "FENGYUN 1C DEB",
        "meta_object_id": "1999-025WT",
        "meta_epoch": "2025-12-13T00:10:29.590752",
        "meta_mean_motion": 14.16864544,
        "meta_eccentricity": 0.00670283,
        "meta_inclination": 98.6338,
        "meta_ra_of_asc_node": 357.7773,
        "meta_arg_of_pericenter": 74.4284,
        "meta_mean_anomaly": 339.9691,
        "meta_ephemeris_type": 0,
        "meta_classification_type": "U",
        "meta_norad_cat_id": 30234,
        "meta_element_set_no": 999,
        "meta_rev_at_epoch": 97460,
        "meta_bstar": 0.00046570538,
        "meta_mean_motion_dot": 9.12e-06,
        "meta_mean_motion_ddot": 0,
        "tle_line1": "1 30234U 99025WT  25347.00728693  .00000912  00000+0  46571-3 0  9990",
        "tle_line2": "2 30234  98.6338 357.7773 0067028  74.4284 339.9691 14.16864544974601"
      },
      "geometry": {
        "type": "Point",
        "coordinates": [
          0.4672937778599055,
          -13.044308920696963
        ]
      }
    },
    {
      "type": "Feature",
      "properties": {
        "norad_id": 30235,
        "name": "FENGYUN 1C DEB",
        "group": "fengyun-1c-debris",
        "lat": -75.21093463480611,
        "lon": 41.5261699779538,
        "alt_km": 793.0097614648375,
        "timestamp": "2025-12-13T16:48:32.985158+00:00",
        "meta_object_name": "FENGYUN 1C DEB",
        "meta_object_id": "1999-025WU",
        "meta_epoch": "2025-12-13T00:26:43.957248",
        "meta_mean_motion": 14.08778418,
        "meta_eccentricity": 0.01534019,
        "meta_inclination": 98.7497,
        "meta_ra_of_asc_node": 5.1783,
        "meta_arg_of_pericenter": 237.7594,
        "meta_mean_anomaly": 186.9935,
        "meta_ephemeris_type": 0,
        "meta_classification_type": "U",
        "meta_norad_cat_id": 30235,
        "meta_element_set_no": 999,
        "meta_rev_at_epoch": 96897,
        "meta_bstar": 0.00048283676,
        "meta_mean_motion_dot": 8.84e-06,
        "meta_mean_motion_ddot": 0,
        "tle_line1": "1 30235U 99025WU  25347.01856432  .00000884  00000+0  48284-3 0  9996",
        "tle_line2": "2 30235  98.7497   5.1783 0153401 237.7594 186.9935 14.08778418968972"
      },
      "geometry": {
        "type": "Point",
        "coordinates": [
          41.5261699779538,
          -75.21093463480611
        ]
      }
    },
    {
      "type": "Feature",
      "properties": {
        "norad_id": 30237,
        "name": "FENGYUN 1C DEB",
        "group": "fengyun-1c-debris",
        "lat": -34.568878571767385,
        "lon": 96.62538284799533,
        "alt_km": 752.5337253877451,
        "timestamp": "2025-12-13T16:48:32.985168+00:00",
        "meta_object_name": "FENGYUN 1C DEB",
        "meta_object_id": "1999-025WW",
        "meta_epoch": "2025-12-12T06:13:27.059808",
        "meta_mean_motion": 14.40881116,
        "meta_eccentricity": 0.00139015,
        "meta_inclination": 98.8254,
        "meta_ra_of_asc_node": 88.9934,
        "meta_arg_of_pericenter": 306.4157,
        "meta_mean_anomaly": 107.8476,
        "meta_ephemeris_type": 0,
        "meta_classification_type": "U",
        "meta_norad_cat_id": 30237,
        "meta_element_set_no": 999,
        "meta_rev_at_epoch": 97691,
        "meta_bstar": 0.0036394315,
        "meta_mean_motion_dot": 0.00011655,
        "meta_mean_motion_ddot": 0,
        "tle_line1": "1 30237U 99025WW  25346.25934097  .00011655  00000+0  36394-2 0  9993",
        "tle_line2": "2 30237  98.8254  88.9934 0013901 306.4157 107.8476 14.40881116976913"
      },
      "geometry": {
        "type": "Point",
        "coordinates": [
          96.62538284799533,
          -34.568878571767385
        ]
      }
    },
    {
      "type": "Feature",
      "properties": {
        "norad_id": 30239,
        "name": "FENGYUN 1C DEB",
        "group": "fengyun-1c-debris",
        "lat": -27.975251143070924,
        "lon": -49.28386059714851,
        "alt_km": 3100.0991069414513,
        "timestamp": "2025-12-13T16:48:32.985178+00:00",
        "meta_object_name": "FENGYUN 1C DEB",
        "meta_object_id": "1999-025WY",
        "meta_epoch": "2025-12-11T08:47:04.200576",
        "meta_mean_motion": 11.38099167,
        "meta_eccentricity": 0.13466863,
        "meta_inclination": 99.5827,
        "meta_ra_of_asc_node": 134.2999,
        "meta_arg_of_pericenter": 32.9446,
        "meta_mean_anomaly": 334.8656,
        "meta_ephemeris_type": 0,
        "meta_classification_type": "U",
        "meta_norad_cat_id": 30239,
        "meta_element_set_no": 999,
        "meta_rev_at_epoch": 54519,
        "meta_bstar": 0.02191781,
        "meta_mean_motion_dot": 7.285e-05,
        "meta_mean_motion_ddot": 0,
        "tle_line1": "1 30239U 99025WY  25345.36602084  .00007285  00000+0  21918-1 0  9993",
        "tle_line2": "2 30239  99.5827 134.2999 1346686  32.9446 334.8656 11.38099167545192"
      },
      "geometry": {
        "type": "Point",
        "coordinates": [
          -49.28386059714851,
          -27.975251143070924
        ]
      }
    },
    {
      "type": "Feature",
      "properties": {
        "norad_id": 30241,
        "name": "FENGYUN 1C DEB",
        "group": "fengyun-1c-debris",
        "lat": 31.72113570780824,
        "lon": -53.68682156115385,
        "alt_km": 820.0958975963331,
        "timestamp": "2025-12-13T16:48:32.985188+00:00",
        "meta_object_name": "FENGYUN 1C DEB",
        "meta_object_id": "1999-025XA",
        "meta_epoch": "2025-12-12T21:56:18.898368",
        "meta_mean_motion": 14.09546707,
        "meta_eccentricity": 0.01468375,
        "meta_inclination": 99.1485,
        "meta_ra_of_asc_node": 119.7978,
        "meta_arg_of_pericenter": 80.6219,
        "meta_mean_anomaly": 37.8886,
        "meta_ephemeris_type": 0,
        "meta_classification_type": "U",
        "meta_norad_cat_id": 30241,
        "meta_element_set_no": 999,
        "meta_rev_at_epoch": 96914,
        "meta_bstar": 0.00039625314,
        "meta_mean_motion_dot": 7.21e-06,
        "meta_mean_motion_ddot": 0,
        "tle_line1": "1 30241U 99025XA  25346.91410762  .00000721  00000+0  39625-3 0  9992",
        "tle_line2": "2 30241  99.1485 119.7978 0146837  80.6219  37.8886 14.09546707969147"
      },
      "geometry": {
        "type": "Point",
        "coordinates": [
          -53.68682156115385,
          31.72113570780824
        ]
      }
    },
    {
      "type": "Feature",
      "properties": {
        "norad_id": 30242,
        "name": "FENGYUN 1C DEB",
        "group": "fengyun-1c-debris",
        "lat": 69.00555006189248,
        "lon": -134.68341530279025,
        "alt_km": 822.2637649956278,
        "timestamp": "2025-12-13T16:48:32.985197+00:00",
        "meta_object_name": "FENGYUN 1C DEB",
        "meta_object_id": "1999-025XB",
        "meta_epoch": "2025-12-12T15:27:04.468608",
        "meta_mean_motion": 14.17637927,
        "meta_eccentricity": 0.00110758,
        "meta_inclination": 98.6834,
        "meta_ra_of_asc_node": 20.8164,
        "meta_arg_of_pericenter": 55.0905,
        "meta_mean_anomaly": 64.7288,
        "meta_ephemeris_type": 0,
        "meta_classification_type": "U",
        "meta_norad_cat_id": 30242,
        "meta_element_set_no": 999,
        "meta_rev_at_epoch": 97425,
        "meta_bstar": 0.00085894393,
        "meta_mean_motion_dot": 1.705e-05,
        "meta_mean_motion_ddot": 0,
        "tle_line1": "1 30242U 99025XB  25346.64380172  .00001705  00000+0  85894-3 0  9996",
        "tle_line2": "2 30242  98.6834  20.8164 0011075  55.0905  64.7288 14.17637927974259"
      },
      "geometry": {
        "type": "Point",
        "coordinates": [
          -134.68341530279025,
          69.00555006189248
        ]
      }
    }
  ]
}